{"type": "FeatureCollection", "features": [ {"type": "Feature", "properties": {"norad_id": 66656, "name": "2025-274G", "group": "last-30-days", "lat": 56.914394826378164, "lon": 99.7586456960612, "alt_km": 593.6693133396284, "timestamp": "2025-12-06T09:34:15.700785+00:00", "meta": {"OBJECT_NAME": "2025-274G", "OBJECT_ID": "2025-274G", "EPOCH": "2025-12-05T18:32:25.144800", "MEAN_MOTION": 14.92210067, "ECCENTRICITY": 0.00124079, "INCLINATION": 97.7386, "RA_OF_ASC_NODE": 267.0965, "ARG_OF_PERICENTER": 283.5303, "MEAN_ANOMALY": 76.4534, "EPHEMERIS_TYPE": 0, "CLASSIFICATION_TYPE": "U", "NORAD_CAT_ID": 66656, "ELEMENT_SET_NO": 999, "REV_AT_EPOCH": 136, "BSTAR": 0.00057215165, "MEAN_MOTION_DOT": 5.784e-05, "MEAN_MOTION_DDOT": 0}, "tle": {"line1": "1 66656U 25274G   25339.77251325  .00005784  00000+0  57215-3 0  9999", "line2": "2 66656  97.7386 267.0965 0012407 283.5303  76.4534 14.92210067  1365"}}, "geometry": {"type": "Point", "coordinates": [99.7586456960612, 56.914394826378164]}}, {"type": "Feature", "properties": {"norad_id": 66657, "name": "SPIRONE", "group": "last-30-days", "lat": 50.78983552177826, "lon": 97.30824646196649, "alt_km": 593.4259118507698, "timestamp": "2025-12-06T09:34:15.700795+00:00", "meta": {"OBJECT_NAME": "SPIRONE", "OBJECT_ID": "2025-274H", "EPOCH": "2025-12-05T18:30:51.628032", "MEAN_MOTION": 14.92389678, "ECCENTRICITY": 0.00110159, "INCLINATION": 97.7387, "RA_OF_ASC_NODE": 267.0973, "ARG_OF_PERICENTER": 302.9073, "MEAN_ANOMALY": 57.1086, "EPHEMERIS_TYPE": 0, "CLASSIFICATION_TYPE": "U", "NORAD_CAT_ID": 66657, "ELEMENT_SET_NO": 999, "REV_AT_EPOCH": 136, "BSTAR": 0.00055963602, "MEAN_MOTION_DOT": 5.68e-05, "MEAN_MOTION_DDOT": 0}, "tle": {"line1": "1 66657U 25274H   25339.77143088  .00005680  00000+0  55964-3 0  9990", "line2": "2 66657  97.7387 267.0973 0011015 302.9073  57.1086 14.92389678  1363"}}, "geometry": {"type": "Point", "coordinates": [97.30824646196649, 50.78983552177826]}}, {"type": "Feature", "properties": {"norad_id": 66658, "name": "2025-274J", "group": "last-30-days", "lat": 44.786727753779324, "lon": 95.47396322305129, "alt_km": 594.061848101831, "timestamp": "2025-12-06T09:34:15.700805+00:00", "meta": {"OBJECT_NAME": "2025-274J", "OBJECT_ID": "2025-274J", "EPOCH": "2025-12-05T18:29:19.319136", "MEAN_MOTION": 14.92563389, "ECCENTRICITY": 0.001159, "INCLINATION": 97.739, "RA_OF_ASC_NODE": 267.0987, "ARG_OF_PERICENTER": 305.7362, "MEAN_ANOMALY": 54.2779, "EPHEMERIS_TYPE": 0, "CLASSIFICATION_TYPE": "U", "NORAD_CAT_ID": 66658, "ELEMENT_SET_NO": 999, "REV_AT_EPOCH": 136, "BSTAR": 0.00054429835, "MEAN_MOTION_DOT": 5.548e-05, "MEAN_MOTION_DDOT": 0}, "tle": {"line1": "1 66658U 25274J   25339.77036249  .00005548  00000+0  54430-3 0  9991", "line2": "2 66658  97.7390 267.0987 0011590 305.7362  54.2779 14.92563389  1363"}}, "geometry": {"type": "Point", "coordinates": [95.47396322305129, 44.786727753779324]}}, {"type": "Feature", "properties": {"norad_id": 66659, "name": "JACK K", "group": "last-30-days", "lat": 38.40640467284528, "lon": 93.90833691303565, "alt_km": 594.7309090129884, "timestamp": "2025-12-06T09:34:15.700814+00:00", "meta": {"OBJECT_NAME": "JACK K", "OBJECT_ID": "2025-274K", "EPOCH": "2025-12-05T18:27:41.567904", "MEAN_MOTION": 14.92749179, "ECCENTRICITY": 0.00122621, "INCLINATION": 97.739, "RA_OF_ASC_NODE": 267.1003, "ARG_OF_PERICENTER": 307.0042, "MEAN_ANOMALY": 53.0054, "EPHEMERIS_TYPE": 0, "CLASSIFICATION_TYPE": "U", "NORAD_CAT_ID": 66659, "ELEMENT_SET_NO": 999, "REV_AT_EPOCH": 136, "BSTAR": 0.00054101288, "MEAN_MOTION_DOT": 5.541e-05, "MEAN_MOTION_DDOT": 0}, "tle": {"line1": "1 66659U 25274K   25339.76923111  .00005541  00000+0  54101-3 0  9992", "line2": "2 66659  97.7390 267.1003 0012262 307.0042  53.0054 14.92749179  1367"}}, "geometry": {"type": "Point", "coordinates": [93.90833691303565, 38.40640467284528]}}, {"type": "Feature", "properties": {"norad_id": 66660, "name": "K-HERO", "group": "last-30-days", "lat": 33.27013211133808, "lon": 92.84146243561939, "alt_km": 595.3128654814054, "timestamp": "2025-12-06T09:34:15.700824+00:00", "meta": {"OBJECT_NAME": "K-HERO", "OBJECT_ID": "2025-274L", "EPOCH": "2025-12-05T18:26:22.938720", "MEAN_MOTION": 14.92896752, "ECCENTRICITY": 0.00129639, "INCLINATION": 97.7395, "RA_OF_ASC_NODE": 267.1019, "ARG_OF_PERICENTER": 307.432, "MEAN_ANOMALY": 52.5719, "EPHEMERIS_TYPE": 0, "CLASSIFICATION_TYPE": "U", "NORAD_CAT_ID": 66660, "ELEMENT_SET_NO": 999, "REV_AT_EPOCH": 136, "BSTAR": 0.00050871099, "MEAN_MOTION_DOT": 5.227e-05, "MEAN_MOTION_DDOT": 0}, "tle": {"line1": "1 66660U 25274L   25339.76832105  .00005227  00000+0  50871-3 0  9997", "line2": "2 66660  97.7395 267.1019 0012963 307.4320  52.5719 14.92896752  1364"}}, "geometry": {"type": "Point", "coordinates": [92.84146243561939, 33.27013211133808]}}, {"type": "Feature", "properties": {"norad_id": 66661, "name": "SNUGLITE-III", "group": "last-30-days", "lat": 27.993248972886658, "lon": 91.86944585750089, "alt_km": 595.8206787121808, "timestamp": "2025-12-06T09:34:15.700833+00:00", "meta": {"OBJECT_NAME": "SNUGLITE-III", "OBJECT_ID": "2025-274M", "EPOCH": "2025-12-05T18:25:02.263584", "MEAN_MOTION": 14.93046198, "ECCENTRICITY": 0.00135957, "INCLINATION": 97.7392, "RA_OF_ASC_NODE": 267.1029, "ARG_OF_PERICENTER": 308.3863, "MEAN_ANOMALY": 51.6135, "EPHEMERIS_TYPE": 0, "CLASSIFICATION_TYPE": "U", "NORAD_CAT_ID": 66661, "ELEMENT_SET_NO": 999, "REV_AT_EPOCH": 136, "BSTAR": 0.00049061962, "MEAN_MOTION_DOT": 5.059e-05, "MEAN_MOTION_DDOT": 0}, "tle": {"line1": "1 66661U 25274M   25339.76738731  .00005059  00000+0  49062-3 0  9991", "line2": "2 66661  97.7392 267.1029 0013595 308.3863  51.6135 14.93046198  1361"}}, "geometry": {"type": "Point", "coordinates": [91.86944585750089, 27.993248972886658]}}, {"type": "Feature", "properties": {"norad_id": 66662, "name": "2025-274N", "group": "last-30-days", "lat": 25.790258597394057, "lon": 91.49263653972903, "alt_km": 596.0719916968546, "timestamp": "2025-12-06T09:34:15.700845+00:00", "meta": {"OBJECT_NAME": "2025-274N", "OBJECT_ID": "2025-274N", "EPOCH": "2025-12-05T18:24:28.056960", "MEAN_MOTION": 14.93097747, "ECCENTRICITY": 0.0014044, "INCLINATION": 97.739, "RA_OF_ASC_NODE": 267.1034, "ARG_OF_PERICENTER": 307.6124, "MEAN_ANOMALY": 52.382, "EPHEMERIS_TYPE": 0, "CLASSIFICATION_TYPE": "U", "NORAD_CAT_ID": 66662, "ELEMENT_SET_NO": 999, "REV_AT_EPOCH": 136, "BSTAR": 0.00032328151, "MEAN_MOTION_DOT": 3.318e-05, "MEAN_MOTION_DDOT": 0}, "tle": {"line1": "1 66662U 25274N   25339.76699140  .00003318  00000+0  32328-3 0  9995", "line2": "2 66662  97.7390 267.1034 0014044 307.6124  52.3820 14.93097747  1363"}}, "geometry": {"type": "Point", "coordinates": [91.49263653972903, 25.790258597394057]}}, {"type": "Feature", "properties": {"norad_id": 66663, "name": "KSLV-II R/B", "group": "last-30-days", "lat": -57.215991781800724, "lon": -80.00745293704475, "alt_km": 556.7980704599613, "timestamp": "2025-12-06T09:34:15.700855+00:00", "meta": {"OBJECT_NAME": "KSLV-II R/B", "OBJECT_ID": "2025-274P", "EPOCH": "2025-12-05T12:58:33.614976", "MEAN_MOTION": 14.97210966, "ECCENTRICITY": 0.00473649, "INCLINATION": 97.7405, "RA_OF_ASC_NODE": 266.9508, "ARG_OF_PERICENTER": 343.4564, "MEAN_ANOMALY": 16.5109, "EPHEMERIS_TYPE": 0, "CLASSIFICATION_TYPE": "U", "NORAD_CAT_ID": 66663, "ELEMENT_SET_NO": 999, "REV_AT_EPOCH": 133, "BSTAR": 0.0001343158, "MEAN_MOTION_DOT": 1.527e-05, "MEAN_MOTION_DDOT": 0}, "tle": {"line1": "1 66663U 25274P   25339.54066684  .00001527  00000+0  13432-3 0  9998", "line2": "2 66663  97.7405 266.9508 0047364 343.4564  16.5109 14.97210966  1334"}}, "geometry": {"type": "Point", "coordinates": [-80.00745293704475, -57.215991781800724]}}, {"type": "Feature", "properties": {"norad_id": 66664, "name": "SOYUZ-MS 28", "group": "last-30-days", "lat": -51.265910045382974, "lon": 92.84663836431668, "alt_km": 422.1655224759643, "timestamp": "2025-12-06T09:34:15.700866+00:00", "meta": {"OBJECT_NAME": "SOYUZ-MS 28", "OBJECT_ID": "2025-275A", "EPOCH": "2025-12-05T21:33:01.156320", "MEAN_MOTION": 15.49346308, "ECCENTRICITY": 0.00035522, "INCLINATION": 51.6298, "RA_OF_ASC_NODE": 176.3533, "ARG_OF_PERICENTER": 209.1564, "MEAN_ANOMALY": 150.9226, "EPHEMERIS_TYPE": 0, "CLASSIFICATION_TYPE": "U", "NORAD_CAT_ID": 66664, "ELEMENT_SET_NO": 999, "REV_AT_EPOCH": 128, "BSTAR": 0.0002548829, "MEAN_MOTION_DOT": 0.00013789, "MEAN_MOTION_DDOT": 0}, "tle": {"line1": "1 66664U 25275A   25339.89793005  .00013789  00000+0  25488-3 0  9999", "line2": "2 66664  51.6298 176.3533 0003552 209.1564 150.9226 15.49346308  1280"}}, "geometry": {"type": "Point", "coordinates": [92.84663836431668, -51.265910045382974]}}, {"type": "Feature", "properties": {"norad_id": 66820, "name": "KOMPSAT-7", "group": "last-30-days", "lat": -1.3461417388923298, "lon": -73.42480444221147, "alt_km": 577.897190890214, "timestamp": "2025-12-06T09:34:15.700875+00:00", "meta": {"OBJECT_NAME": "KOMPSAT-7", "OBJECT_ID": "2025-279A", "EPOCH": "2025-12-05T20:45:17.933760", "MEAN_MOTION": 14.98346875, "ECCENTRICITY": 0.00095321, "INCLINATION": 97.6389, "RA_OF_ASC_NODE": 285.8717, "ARG_OF_PERICENTER": 246.6392, "MEAN_ANOMALY": 113.3829, "EPHEMERIS_TYPE": 0, "CLASSIFICATION_TYPE": "U", "NORAD_CAT_ID": 66820, "ELEMENT_SET_NO": 999, "REV_AT_EPOCH": 62, "BSTAR": 0.00040563085, "MEAN_MOTION_DOT": 4.779e-05, "MEAN_MOTION_DDOT": 0}, "tle": {"line1": "1 66820U 25279A   25339.86479090  .00004779  00000+0  40563-3 0  9999", "line2": "2 66820  97.6389 285.8717 0009532 246.6392 113.3829 14.98346875   625"}}, "geometry": {"type": "Point", "coordinates": [-73.42480444221147, -1.3461417388923298]}}]}